COMMENT,ORIGINATOR,NORAD_CAT_ID,OBJECT_NAME,OBJECT_TYPE,CLASSIFICATION_TYPE,INTLDES,EPOCH,EPOCH_MICROSECONDS,MEAN_MOTION,ECCENTRICITY,INCLINATION,RA_OF_ASC_NODE,ARG_OF_PERICENTER,MEAN_ANOMALY,EPHEMERIS_TYPE,ELEMENT_SET_NO,REV_AT_EPOCH,BSTAR,MEAN_MOTION_DOT,MEAN_MOTION_DDOT,FILE,TLE_LINE0,TLE_LINE1,TLE_LINE2,OBJECT_ID,OBJECT_NUMBER,SEMIMAJOR_AXIS,PERIOD,APOGEE,PERIGEE,DECAYED
"GENERATED VIA SPACETRACK.ORG API","18 SPCS","48899","SPACEBEE-110","PAYLOAD","U","21059W","2022-07-30 18:50:36","678336","15.17009707","0.0008072","97.5629","341.5367","319.1041","40.9586","0","999","6051","0.00023758","0.00004631","0","3525638","0 SPACEBEE-110","1 48899U 21059W   22211.78514674  .00004631  00000-0  23758-3 0  9997","2 48899  97.5629 341.5367 0008072 319.1041  40.9586 15.17009707 60514","2021-059W","48899","6893.021","94.924","520.450","509.322","0"
"GENERATED VIA SPACETRACK.ORG API","18 SPCS","48899","SPACEBEE-110","PAYLOAD","U","21059W","2022-07-31 07:30:28","838592","15.17014091","0.0008035","97.5629","342.0632","317.0124","43.048","0","999","6059","0.00023049","0.00004491","0","3526126","0 SPACEBEE-110","1 48899U 21059W   22212.31283378  .00004491  00000-0  23049-3 0  9998","2 48899  97.5629 342.0632 0008035 317.0124  43.0480 15.17014091 60590","2021-059W","48899","6893.008","94.923","520.411","509.334","0"
"GENERATED VIA SPACETRACK.ORG API","18 SPCS","48899","SPACEBEE-110","PAYLOAD","U","21059W","2022-07-31 07:30:28","838592","15.17014091","0.0008035","97.5629","342.0632","317.0124","43.048","0","999","6059","0.00023049","0.00004491","0","3526169","0 SPACEBEE-110","1 48899U 21059W   22212.31283378  .00004491  00000-0  23049-3 0  9998","2 48899  97.5629 342.0632 0008035 317.0124  43.0480 15.17014091 60590","2021-059W","48899","6893.008","94.923","520.411","509.334","0"
"GENERATED VIA SPACETRACK.ORG API","18 SPCS","48899","SPACEBEE-110","PAYLOAD","U","21059W","2022-07-31 20:10:20","856288","15.17019374","0.0007984","97.563","342.5896","315.0317","45.0269","0","999","6067","0.00023967","0.00004673","0","3526413","0 SPACEBEE-110","1 48899U 21059W   22212.84051917  .00004673  00000-0  23967-3 0  9999","2 48899  97.5630 342.5896 0007984 315.0317  45.0269 15.17019374 60678","2021-059W","48899","6892.992","94.923","520.360","509.353","0"
"GENERATED VIA SPACETRACK.ORG API","18 SPCS","48899","SPACEBEE-110","PAYLOAD","U","21059W","2022-08-01 07:15:13","759776","15.17023271","0.000796","97.5629","343.0503","313.1741","46.8826","0","999","6074","0.00023355","0.00004552","0","3526929","0 SPACEBEE-110","1 48899U 21059W   22213.30224259  .00004552  00000-0  23355-3 0  9999","2 48899  97.5629 343.0503 0007960 313.1741  46.8826 15.17023271 60748","2021-059W","48899","6892.980","94.923","520.332","509.358","0"
"GENERATED VIA SPACETRACK.ORG API","18 SPCS","48899","SPACEBEE-110","PAYLOAD","U","21059W","2022-08-01 19:55:05","500128","15.17028169","0.0007929","97.5629","343.5768","311.0451","49.0096","0","999","6082","0.0002298","0.00004479","0","3527106","0 SPACEBEE-110","1 48899U 21059W   22213.82992477  .00004479  00000-0  22980-3 0  9991","2 48899  97.5629 343.5768 0007929 311.0451  49.0096 15.17028169 60820","2021-059W","48899","6892.965","94.922","520.296","509.365","0"
"GENERATED VIA SPACETRACK.ORG API","18 SPCS","48899","SPACEBEE-110","PAYLOAD","U","21059W","2022-08-01 19:55:05","500128","15.17028169","0.0007929","97.5629","343.5768","311.0451","49.0096","0","999","6082","0.0002298","0.00004479","0","3527139","0 SPACEBEE-110","1 48899U 21059W   22213.82992477  .00004479  00000-0  22980-3 0  9991","2 48899  97.5629 343.5768 0007929 311.0451  49.0096 15.17028169 60820","2021-059W","48899","6892.965","94.922","520.296","509.365","0"
"GENERATED VIA SPACETRACK.ORG API","18 SPCS","48899","SPACEBEE-110","PAYLOAD","U","21059W","2022-08-02 08:34:57","101376","15.1703282","0.0007918","97.5629","344.1033","309.0818","50.971","0","999","6090","0.00022296","0.00004344","0","3527697","0 SPACEBEE-110","1 48899U 21059W   22214.35760534  .00004344  00000-0  22296-3 0  9998","2 48899  97.5629 344.1033 0007918 309.0818  50.9710 15.17032820 60906","2021-059W","48899","6892.951","94.922","520.274","509.358","0"
"GENERATED VIA SPACETRACK.ORG API","18 SPCS","48899","SPACEBEE-110","PAYLOAD","U","21059W","2022-08-02 19:39:49","610016","15.17037592","0.0007899","97.5629","344.5639","307.3229","52.7283","0","999","6097","0.00022821","0.00004448","0","3527804","0 SPACEBEE-110","1 48899U 21059W   22214.81932419  .00004448  00000-0  22821-3 0  9991","2 48899  97.5629 344.5639 0007899 307.3229  52.7283 15.17037592 60970","2021-059W","48899","6892.937","94.922","520.246","509.357","0"
"GENERATED VIA SPACETRACK.ORG API","18 SPCS","48899","SPACEBEE-110","PAYLOAD","U","21059W","2022-08-03 01:59:45","287520","15.17039968","0.0007892","97.5629","344.8272","306.3012","53.7492","0","999","6101","0.00022903","0.00004465","0","3528045","0 SPACEBEE-110","1 48899U 21059W   22215.08316305  .00004465  00000-0  22903-3 0  9991","2 48899  97.5629 344.8272 0007892 306.3012  53.7492 15.17039968 61016","2021-059W","48899","6892.929","94.922","520.234","509.354","0"
"GENERATED VIA SPACETRACK.ORG API","18 SPCS","48899","SPACEBEE-110","PAYLOAD","U","21059W","2022-08-03 08:19:40","908864","15.17042889","0.0007886","97.5628","345.0905","305.2711","54.7784","0","999","6105","0.00023317","0.00004547","0","3528364","0 SPACEBEE-110","1 48899U 21059W   22215.34700126  .00004547  00000-0  23317-3 0  9999","2 48899  97.5628 345.0905 0007886 305.2711  54.7784 15.17042889 61053","2021-059W","48899","6892.920","94.922","520.221","509.350","0"
"GENERATED VIA SPACETRACK.ORG API","18 SPCS","48899","SPACEBEE-110","PAYLOAD","U","21059W","2022-08-03 19:24:33","215328","15.17046396","0.0007865","97.5627","345.5513","303.3532","56.6948","0","999","6112","0.00022058","0.00004298","0","3528582","0 SPACEBEE-110","1 48899U 21059W   22215.80871777  .00004298  00000-0  22058-3 0  9995","2 48899  97.5627 345.5513 0007865 303.3532  56.6948 15.17046396 61127","2021-059W","48899","6892.910","94.921","520.196","509.354","0"
"GENERATED VIA SPACETRACK.ORG API","18 SPCS","48899","SPACEBEE-110","PAYLOAD","U","21059W","2022-08-04 08:04:24","265344","15.17051255","0.0007858","97.5628","346.0778","301.1955","58.8507","0","999","6120","0.00022381","0.00004363","0","3529017","0 SPACEBEE-110","1 48899U 21059W   22216.33639196  .00004363  00000-0  22381-3 0  9993","2 48899  97.5628 346.0778 0007858 301.1955  58.8507 15.17051255 61208","2021-059W","48899","6892.895","94.921","520.177","509.344","0"
"GENERATED VIA SPACETRACK.ORG API","18 SPCS","48899","SPACEBEE-110","PAYLOAD","U","21059W","2022-08-04 08:04:24","265344","15.17051255","0.0007858","97.5628","346.0778","301.1955","58.8507","0","999","6120","0.00022381","0.00004363","0","3529060","0 SPACEBEE-110","1 48899U 21059W   22216.33639196  .00004363  00000-0  22381-3 0  9993","2 48899  97.5628 346.0778 0007858 301.1955  58.8507 15.17051255 61208","2021-059W","48899","6892.895","94.921","520.177","509.344","0"
"GENERATED VIA SPACETRACK.ORG API","18 SPCS","48899","SPACEBEE-110","PAYLOAD","U","21059W","2022-08-04 19:09:16","308288","15.17056579","0.0007853","97.5628","346.5385","299.2202","60.8245","0","999","6127","0.0002471","0.00004825","0","3529274","0 SPACEBEE-110","1 48899U 21059W   22216.79810542  .00004825  00000-0  24710-3 0  9990","2 48899  97.5628 346.5385 0007853 299.2202  60.8245 15.17056579 61277","2021-059W","48899","6892.879","94.921","520.157","509.331","0"
"GENERATED VIA SPACETRACK.ORG API","18 SPCS","48899","SPACEBEE-110","PAYLOAD","U","21059W","2022-08-05 07:49:07","66272","15.17062834","0.0007835","97.5627","347.0649","297.1448","62.8986","0","999","6135","0.00027599","0.00005399","0","3529733","0 SPACEBEE-110","1 48899U 21059W   22217.32577623  .00005399  00000-0  27599-3 0  9995","2 48899  97.5627 347.0649 0007835 297.1448  62.8986 15.17062834 61358","2021-059W","48899","6892.860","94.920","520.126","509.325","0"
"GENERATED VIA SPACETRACK.ORG API","18 SPCS","48899","SPACEBEE-110","PAYLOAD","U","21059W","2022-08-05 18:53:58","860384","15.17067828","0.0007826","97.5627","347.5256","295.1693","64.8728","0","999","6142","0.0002887","0.00005651","0","3530021","0 SPACEBEE-110","1 48899U 21059W   22217.78748681  .00005651  00000-0  28870-3 0  9993","2 48899  97.5627 347.5256 0007826 295.1693  64.8728 15.17067828 61429","2021-059W","48899","6892.845","94.920","520.104","509.316","0"
"GENERATED VIA SPACETRACK.ORG API","18 SPCS","48899","SPACEBEE-110","PAYLOAD","U","21059W","2022-08-05 18:53:58","860384","15.17067828","0.0007826","97.5627","347.5256","295.1693","64.8728","0","999","6142","0.0002887","0.00005651","0","3530042","0 SPACEBEE-110","1 48899U 21059W   22217.78748681  .00005651  00000-0  28870-3 0  9993","2 48899  97.5627 347.5256 0007826 295.1693  64.8728 15.17067828 61429","2021-059W","48899","6892.845","94.920","520.104","509.316","0"
"GENERATED VIA SPACETRACK.ORG API","18 SPCS","48899","SPACEBEE-110","PAYLOAD","U","21059W","2022-08-06 07:33:49","290912","15.17073531","0.0007836","97.5625","348.052","292.876","67.1645","0","999","6150","0.0003005","0.00005886","0","3530579","0 SPACEBEE-110","1 48899U 21059W   22218.31515383  .00005886  00000-0  30050-3 0  9997","2 48899  97.5625 348.0520 0007836 292.8760  67.1645 15.17073531 61508","2021-059W","48899","6892.828","94.920","520.094","509.291","0"
"GENERATED VIA SPACETRACK.ORG API","18 SPCS","48899","SPACEBEE-110","PAYLOAD","U","21059W","2022-08-06 20:13:39","532224","15.17080449","0.000783","97.5624","348.5784","290.7331","69.3062","0","999","6158","0.00032474","0.00006368","0","3530761","0 SPACEBEE-110","1 48899U 21059W   22218.84281866  .00006368  00000-0  32474-3 0  9999","2 48899  97.5624 348.5784 0007830 290.7331  69.3062 15.17080449 61580","2021-059W","48899","6892.807","94.919","520.069","509.275","0"
